{
"type": "FeatureCollection",
"name": "la_parts_clipped",
"crs": { "type": "name", "properties": { "name": "urn:ogc:def:crs:OGC:1.3:CRS84" } },
"features": [
{ "type": "Feature", "properties": { "part_id": 1, "name": "LA Part 1" }, "geometry": { "type": "Polygon", "coordinates": [ [ [ -118.019702137335003, 33.902024851903803 ], [ -118.045332145947, 33.955204856407903 ], [ -118.164059426256998, 34.203446497221798 ], [ -118.190756195481995, 34.260476881975599 ], [ -118.201413199181005, 34.283364883880502 ], [ -118.194012198357996, 34.2884048848601 ], [ -118.152312193019, 34.308454889465402 ], [ -118.137629191111998, 34.315204891054002 ], [ -117.686022126333995, 34.454994932649697 ], [ -117.662422122154993, 34.453194933818303 ], [ -117.652692113157002, 34.366054924646903 ], [ -117.651775800303199, 34.333387209710324 ], [ -117.711067, 34.079536 ], [ -117.719481, 34.059731 ], [ -117.72601, 34.041128 ], [ -117.735846, 34.018554 ], [ -117.767752, 34.019429 ], [ -117.774353036229073, 33.988402642524989 ], [ -117.820302107735003, 33.953484868838501 ], [ -117.859523355517382, 33.939161084063365 ], [ -117.97653, 33.928034 ], [ -117.976498, 33.919171 ], [ -117.976571, 33.911205 ], [ -117.976692, 33.910614 ], [ -117.976588, 33.909757 ], [ -117.976586, 33.906225 ], [ -117.993485241689328, 33.890237571067424 ], [ -117.999211042761004, 33.888146481496001 ], [ -118.011802134880995, 33.888074850784697 ], [ -118.019702137335003, 33.902024851903803 ] ] ] } },
{ "type": "Feature", "properties": { "part_id": 2, "name": "LA Part 2" }, "geometry": { "type": "Polygon", "coordinates": [ [ [ -118.203112204999002, 34.349444891038999 ], [ -118.285902226337001, 34.437614895887002 ], [ -118.304695232746994, 34.4760048989775 ], [ -118.380912259477995, 34.638954912188197 ], [ -118.414602271407006, 34.711564918031797 ], [ -118.448872283938996, 34.789504924376701 ], [ -118.431402283571998, 34.818624928545198 ], [ -118.308582263114999, 34.819974936023698 ], [ -118.166242239230996, 34.8205549445793 ], [ -118.155992237500996, 34.820534945188598 ], [ -118.141222235008996, 34.820504946066201 ], [ -117.916622195919004, 34.807914958074598 ], [ -117.874012188308996, 34.803604960137697 ], [ -117.738472163037002, 34.778314965409699 ], [ -117.689152149484002, 34.719164961798199 ], [ -117.675822144674996, 34.689894959345203 ], [ -117.663142127670994, 34.516804940865903 ], [ -117.663622127449997, 34.513234940440398 ], [ -117.666642126143998, 34.491794937876399 ], [ -117.686172127399004, 34.4672849340105 ], [ -117.712234130615997, 34.4527829308823 ], [ -117.828579147159004, 34.414237919852397 ], [ -117.902789957710993, 34.390004912870197 ], [ -118.135862190978003, 34.317164891371597 ], [ -118.203112204999002, 34.349444891038999 ] ] ] } },
{ "type": "Feature", "properties": { "part_id": 3, "name": "LA Part 3" }, "geometry": { "type": "Polygon", "coordinates": [ [ [ -118.822491460405715, 34.014617489590172 ], [ -118.84038, 34.027527 ], [ -118.854653, 34.034215 ], [ -118.896159, 34.039207 ], [ -118.928048, 34.045847 ], [ -118.933276524885557, 34.04456292890282 ], [ -118.935022301472998, 34.045034816039397 ], [ -118.939734522633003, 34.049727036277098 ], [ -118.937706989770774, 34.076830618291154 ], [ -118.788889, 34.168214 ], [ -118.668152, 34.168195 ], [ -118.633473, 34.269626 ], [ -118.636789, 34.291804 ], [ -118.650859, 34.320484 ], [ -118.796692, 34.616559 ], [ -118.881364, 34.790629 ], [ -118.854253, 34.817772 ], [ -118.837497334241164, 34.817842572003102 ], [ -118.625452315895004, 34.8181649169005 ], [ -118.536742300498005, 34.811064921443702 ], [ -118.466632288156006, 34.803754924846501 ], [ -118.448932282673994, 34.774934922808598 ], [ -118.396142264565, 34.668304914459299 ], [ -118.305012232783, 34.475804898937199 ], [ -118.233512205256005, 34.291534882931501 ], [ -118.288462210882003, 34.248424875043803 ], [ -118.290043641051, 34.247273554826698 ], [ -118.580573620451446, 34.040784080606635 ], [ -118.603572, 34.039048 ], [ -118.609652, 34.036424 ], [ -118.668358, 34.038887 ], [ -118.67543, 34.037479 ], [ -118.679366, 34.033255 ], [ -118.706215, 34.029383 ], [ -118.732391, 34.032743 ], [ -118.744952, 34.032103 ], [ -118.783433, 34.021543 ], [ -118.787094, 34.019545 ], [ -118.791812640452093, 34.01475146880599 ], [ -118.806412277663, 34.013064819875098 ], [ -118.816562279333994, 34.0130148192953 ], [ -118.822491460405715, 34.014617489590172 ] ] ] } },
{ "type": "Feature", "properties": { "part_id": 4, "name": "LA Part 4" }, "geometry": { "type": "MultiPolygon", "coordinates": [ [ [ [ -118.228012204096004, 34.288704882937303 ], [ -118.226940913948994, 34.289094083041697 ], [ -118.225712203762996, 34.289344883139897 ], [ -118.206012199311999, 34.275671882770503 ], [ -118.196212196288002, 34.259144881515901 ], [ -118.180092191297007, 34.231714879420601 ], [ -118.070552154422003, 34.007304860795102 ], [ -118.018322136571001, 33.895414851241704 ], [ -118.011392133762001, 33.8749948493437 ], [ -118.011402133638995, 33.873444849169601 ], [ -118.011934516186926, 33.872783742646575 ], [ -118.063268, 33.82422 ], [ -118.063162, 33.81961 ], [ -118.072597, 33.815115 ], [ -118.084597, 33.803216 ], [ -118.093008, 33.786289 ], [ -118.099107, 33.776518 ], [ -118.095928462780094, 33.768481026107523 ], [ -118.115347232621261, 33.744367021129378 ], [ -118.116703, 33.743549 ], [ -118.132698, 33.753217 ], [ -118.1569, 33.760317 ], [ -118.1755, 33.763617 ], [ -118.180831, 33.763072 ], [ -118.187701, 33.749218 ], [ -118.1837, 33.736118 ], [ -118.181367, 33.717367 ], [ -118.207476, 33.716905 ], [ -118.258687, 33.703741 ], [ -118.277208, 33.707091 ], [ -118.297104, 33.708319 ], [ -118.317205, 33.712818 ], [ -118.354705, 33.732317 ], [ -118.360505, 33.736817 ], [ -118.385006, 33.741417 ], [ -118.396606, 33.735917 ], [ -118.411211, 33.741985 ], [ -118.428407, 33.774715 ], [ -118.423407, 33.782015 ], [ -118.405007, 33.800215 ], [ -118.394376, 33.804289 ], [ -118.394307, 33.804315 ], [ -118.391507, 33.815415 ], [ -118.392107, 33.840915 ], [ -118.412708, 33.883913 ], [ -118.44241, 33.940312 ], [ -118.460611, 33.969111 ], [ -118.482729, 33.995912 ], [ -118.484212, 33.99771 ], [ -118.502813, 34.015509 ], [ -118.519514, 34.027509 ], [ -118.543115, 34.038508 ], [ -118.569235, 34.04164 ], [ -118.579449740816827, 34.040868919002904 ], [ -118.228012204096004, 34.288704882937303 ] ] ], [ [ [ -118.498901081203996, 33.4394491739193 ], [ -118.500299990226495, 33.44964532802215 ], [ -118.500212, 33.449592 ], [ -118.499669, 33.447879 ], [ -118.48557, 33.446213 ], [ -118.477646, 33.448392 ], [ -118.445812, 33.428907 ], [ -118.423576, 33.427258 ], [ -118.384031937570697, 33.410717445708634 ], [ -118.416012162146004, 33.371004770759697 ], [ -118.498901081203996, 33.4394491739193 ] ] ] ] } }
]
}
