{
"type": "FeatureCollection",
"name": "la_parts",
"crs": { "type": "name", "properties": { "name": "urn:ogc:def:crs:OGC:1.3:CRS84" } },
"features": [
{ "type": "Feature", "properties": { "part_id": 1, "name": "LA Part 1" }, "geometry": { "type": "Polygon", "coordinates": [ [ [ -118.011802134880995, 33.888074850784697 ], [ -118.019702137335003, 33.902024851903803 ], [ -118.045332145947, 33.955204856407903 ], [ -118.164059426256998, 34.203446497221798 ], [ -118.190756195481995, 34.260476881975599 ], [ -118.201413199181005, 34.283364883880502 ], [ -118.194012198357996, 34.2884048848601 ], [ -118.152312193019, 34.308454889465402 ], [ -118.137629191111998, 34.315204891054002 ], [ -117.686022126333995, 34.454994932649697 ], [ -117.662422122154993, 34.453194933818303 ], [ -117.652692113157002, 34.366054924646903 ], [ -117.650512106291004, 34.2883349160685 ], [ -117.659982103565994, 34.2360649096629 ], [ -117.674401101277994, 34.1786039023877 ], [ -117.731622098120994, 34.020874881405298 ], [ -117.820302107735003, 33.953484868838501 ], [ -117.999211042761004, 33.888146481496001 ], [ -118.011802134880995, 33.888074850784697 ] ] ] } },
{ "type": "Feature", "properties": { "part_id": 2, "name": "LA Part 2" }, "geometry": { "type": "Polygon", "coordinates": [ [ [ -118.135862190978003, 34.317164891371597 ], [ -118.203112204999002, 34.349444891038999 ], [ -118.285902226337001, 34.437614895887002 ], [ -118.304695232746994, 34.4760048989775 ], [ -118.380912259477995, 34.638954912188197 ], [ -118.414602271407006, 34.711564918031797 ], [ -118.448872283938996, 34.789504924376701 ], [ -118.431402283571998, 34.818624928545198 ], [ -118.308582263114999, 34.819974936023698 ], [ -118.166242239230996, 34.8205549445793 ], [ -118.155992237500996, 34.820534945188598 ], [ -118.141222235008996, 34.820504946066201 ], [ -117.916622195919004, 34.807914958074598 ], [ -117.874012188308996, 34.803604960137697 ], [ -117.738472163037002, 34.778314965409699 ], [ -117.689152149484002, 34.719164961798199 ], [ -117.675822144674996, 34.689894959345203 ], [ -117.663142127670994, 34.516804940865903 ], [ -117.663622127449997, 34.513234940440398 ], [ -117.666642126143998, 34.491794937876399 ], [ -117.686172127399004, 34.4672849340105 ], [ -117.712234130615997, 34.4527829308823 ], [ -117.828579147159004, 34.414237919852397 ], [ -117.902789957710993, 34.390004912870197 ], [ -118.135862190978003, 34.317164891371597 ] ] ] } },
{ "type": "Feature", "properties": { "part_id": 3, "name": "LA Part 3" }, "geometry": { "type": "Polygon", "coordinates": [ [ [ -118.816562279333994, 34.0130148192953 ], [ -118.935022301472998, 34.045034816039397 ], [ -118.939734522633003, 34.049727036277098 ], [ -118.882313688384997, 34.8173152314438 ], [ -118.882016138376002, 34.817773001509899 ], [ -118.882012358376002, 34.817774901510298 ], [ -118.625452315895004, 34.8181649169005 ], [ -118.536742300498005, 34.811064921443702 ], [ -118.466632288156006, 34.803754924846501 ], [ -118.448932282673994, 34.774934922808598 ], [ -118.396142264565, 34.668304914459299 ], [ -118.305012232783, 34.475804898937199 ], [ -118.233512205256005, 34.291534882931501 ], [ -118.288462210882003, 34.248424875043803 ], [ -118.290043641051, 34.247273554826698 ], [ -118.582922242769996, 34.039114835357999 ], [ -118.584472242993996, 34.038704835225403 ], [ -118.806412277663, 34.013064819875098 ], [ -118.816562279333994, 34.0130148192953 ] ] ] } },
{ "type": "Feature", "properties": { "part_id": 4, "name": "LA Part 4" }, "geometry": { "type": "Polygon", "coordinates": [ [ [ -118.416012162146004, 33.371004770759697 ], [ -118.498901081203996, 33.4394491739193 ], [ -118.581242242531005, 34.039604835506502 ], [ -118.228012204096004, 34.288704882937303 ], [ -118.226940913948994, 34.289094083041697 ], [ -118.225712203762996, 34.289344883139897 ], [ -118.206012199311999, 34.275671882770503 ], [ -118.196212196288002, 34.259144881515901 ], [ -118.180092191297007, 34.231714879420601 ], [ -118.070552154422003, 34.007304860795102 ], [ -118.018322136571001, 33.895414851241704 ], [ -118.011392133762001, 33.8749948493437 ], [ -118.011402133638995, 33.873444849169601 ], [ -118.416012162146004, 33.371004770759697 ] ] ] } }
]
}
